1 43466U 98067NP  19150.06592577  .00019242  00000-0  19312-3 0  9997
2 43466  51.6378  73.9949 0002002  76.3960 283.7258 15.65517199 59841